CTC1_L_00614001-01
1 10000U 26804DZ  26075.70039352  .00000000  00000+0  00000-0 0  9999
2 10000  55.0000   0.0000 0000000   0.0000   0.0000  4.78387620    19
CTC1_L_00614001-02
1 10001U 24284P   26075.70039352  .00000000  00000+0  00000-0 0  9990
2 10001  55.0000   0.0000 0000000   0.0000  36.0000  4.78387620    19
CTC1_L_00614001-03
1 10002U 22135TP  26075.70039352  .00000000  00000+0  00000-0 0  9994
2 10002  55.0000   0.0000 0000000   0.0000  72.0000  4.78387620    10
CTC1_L_00614001-04
1 10003U 26232ZB  26075.70039352  .00000000  00000+0  00000-0 0  9997
2 10003  55.0000   0.0000 0000000   0.0000 108.0000  4.78387620    11
CTC1_L_00614001-05
1 10004U 23882UT  26075.70039352  .00000000  00000+0  00000-0 0  9996
2 10004  55.0000   0.0000 0000000   0.0000 144.0000  4.78387620    12
CTC1_L_00614001-06
1 10005U 25862HV  26075.70039352  .00000000  00000+0  00000-0 0  9997
2 10005  55.0000   0.0000 0000000   0.0000 180.0000  4.78387620    13
CTC1_L_00614001-07
1 10006U 23289GW  26075.70039352  .00000000  00000+0  00000-0 0  9999
2 10006  55.0000   0.0000 0000000   0.0000 216.0000  4.78387620    14
CTC1_L_00614001-08
1 10007U 25833OH  26075.70039352  .00000000  00000+0  00000-0 0  9997
2 10007  55.0000   0.0000 0000000   0.0000 252.0000  4.78387620    15
CTC1_L_00614001-09
1 10008U 24256AV  26075.70039352  .00000000  00000+0  00000-0 0  9996
2 10008  55.0000   0.0000 0000000   0.0000 288.0000  4.78387620    15
CTC1_L_00614001-10
1 10009U 24259UN  26075.70039352  .00000000  00000+0  00000-0 0  9990
2 10009  55.0000   0.0000 0000000   0.0000 324.0000  4.78387620    17
CTC1_L_00614002-01
1 10010U 26868JR  26075.70039352  .00000000  00000+0  00000-0 0  9990
2 10010  55.0000  30.0000 0000000   0.0000  12.0000  4.78387620    16
CTC1_L_00614002-02
1 10011U 26650FI  26075.70039352  .00000000  00000+0  00000-0 0  9990
2 10011  55.0000  30.0000 0000000   0.0000  48.0000  4.78387620    16
CTC1_L_00614002-03
1 10012U 23124RQ  26075.70039352  .00000000  00000+0  00000-0 0  9994
2 10012  55.0000  30.0000 0000000   0.0000  84.0000  4.78387620    17
CTC1_L_00614002-04
1 10013U 23775DS  26075.70039352  .00000000  00000+0  00000-0 0  9997
2 10013  55.0000  30.0000 0000000   0.0000 120.0000  4.78387620    19
CTC1_L_00614002-05
1 10014U 22141ML  26075.70039352  .00000000  00000+0  00000-0 0  9994
2 10014  55.0000  30.0000 0000000   0.0000 156.0000  4.78387620    19
CTC1_L_00614002-06
1 10015U 24698QN  26075.70039352  .00000000  00000+0  00000-0 0  9994
2 10015  55.0000  30.0000 0000000   0.0000 192.0000  4.78387620    10
CTC1_L_00614002-07
1 10016U 26187JC  26075.70039352  .00000000  00000+0  00000-0 0  9990
2 10016  55.0000  30.0000 0000000   0.0000 228.0000  4.78387620    11
CTC1_L_00614002-08
1 10017U 26828OZ  26075.70039352  .00000000  00000+0  00000-0 0  9993
2 10017  55.0000  30.0000 0000000   0.0000 264.0000  4.78387620    12
CTC1_L_00614002-09
1 10018U 22222ZE  26075.70039352  .00000000  00000+0  00000-0 0  9998
2 10018  55.0000  30.0000 0000000   0.0000 300.0000  4.78387620    14
CTC1_L_00614002-10
1 10019U 25839TL  26075.70039352  .00000000  00000+0  00000-0 0  9996
2 10019  55.0000  30.0000 0000000   0.0000 336.0000  4.78387620    14
CTC1_L_00614003-01
1 10020U 22581CE  26075.70039352  .00000000  00000+0  00000-0 0  9999
2 10020  55.0000  60.0000 0000000   0.0000  24.0000  4.78387620    13
CTC1_L_00614003-02
1 10021U 22180QL  26075.70039352  .00000000  00000+0  00000-0 0  9995
2 10021  55.0000  60.0000 0000000   0.0000  60.0000  4.78387620    14
CTC1_L_00614003-03
1 10022U 25379VY  26075.70039352  .00000000  00000+0  00000-0 0  9999
2 10022  55.0000  60.0000 0000000   0.0000  96.0000  4.78387620    14
CTC1_L_00614003-04
1 10023U 25798RU  26075.70039352  .00000000  00000+0  00000-0 0  9995
2 10023  55.0000  60.0000 0000000   0.0000 132.0000  4.78387620    16
CTC1_L_00614003-05
1 10024U 23799NX  26075.70039352  .00000000  00000+0  00000-0 0  9995
2 10024  55.0000  60.0000 0000000   0.0000 168.0000  4.78387620    16
CTC1_L_00614003-06
1 10025U 26925MB  26075.70039352  .00000000  00000+0  00000-0 0  9990
2 10025  55.0000  60.0000 0000000   0.0000 204.0000  4.78387620    18
CTC1_L_00614003-07
1 10026U 24958JS  26075.70039352  .00000000  00000+0  00000-0 0  9995
2 10026  55.0000  60.0000 0000000   0.0000 240.0000  4.78387620    19
CTC1_L_00614003-08
1 10027U 26298PP  26075.70039352  .00000000  00000+0  00000-0 0  9995
2 10027  55.0000  60.0000 0000000   0.0000 276.0000  4.78387620    19
CTC1_L_00614003-09
1 10028U 26249XH  26075.70039352  .00000000  00000+0  00000-0 0  9992
2 10028  55.0000  60.0000 0000000   0.0000 312.0000  4.78387620    11
CTC1_L_00614003-10
1 10029U 22960FN  26075.70039352  .00000000  00000+0  00000-0 0  9999
2 10029  55.0000  60.0000 0000000   0.0000 348.0000  4.78387620    11
CTC1_L_00614004-01
1 10030U 25022UT  26075.70039352  .00000000  00000+0  00000-0 0  9993
2 10030  55.0000  90.0000 0000000   0.0000  36.0000  4.78387620    10
CTC1_L_00614004-02
1 10031U 25936OH  26075.70039352  .00000000  00000+0  00000-0 0  9998
2 10031  55.0000  90.0000 0000000   0.0000  72.0000  4.78387620    11
CTC1_L_00614004-03
1 10032U 23524AN  26075.70039352  .00000000  00000+0  00000-0 0  9990
2 10032  55.0000  90.0000 0000000   0.0000 108.0000  4.78387620    12
CTC1_L_00614004-04
1 10033U 25970PJ  26075.70039352  .00000000  00000+0  00000-0 0  9998
2 10033  55.0000  90.0000 0000000   0.0000 144.0000  4.78387620    13
CTC1_L_00614004-05
1 10034U 23468EO  26075.70039352  .00000000  00000+0  00000-0 0  9999
2 10034  55.0000  90.0000 0000000   0.0000 180.0000  4.78387620    14
CTC1_L_00614004-06
1 10035U 22067XE  26075.70039352  .00000000  00000+0  00000-0 0  9994
2 10035  55.0000  90.0000 0000000   0.0000 216.0000  4.78387620    15
CTC1_L_00614004-07
1 10036U 24104MX  26075.70039352  .00000000  00000+0  00000-0 0  9999
2 10036  55.0000  90.0000 0000000   0.0000 252.0000  4.78387620    16
CTC1_L_00614004-08
1 10037U 26164QZ  26075.70039352  .00000000  00000+0  00000-0 0  9998
2 10037  55.0000  90.0000 0000000   0.0000 288.0000  4.78387620    16
CTC1_L_00614004-09
1 10038U 22166YX  26075.70039352  .00000000  00000+0  00000-0 0  9997
2 10038  55.0000  90.0000 0000000   0.0000 324.0000  4.78387620    18
CTC1_L_00614004-10
1 10039U 26513AY  26075.70039352  .00000000  00000+0  00000-0 0  9998
2 10039  55.0000  90.0000 0000000   0.0000   0.0000  4.78387620    10
CTC1_L_00614005-01
1 10040U 24456DU  26075.70039352  .00000000  00000+0  00000-0 0  9994
2 10040  55.0000 120.0000 0000000   0.0000  48.0000  4.78387620    18
CTC1_L_00614005-02
1 10041U 25289BB  26075.70039352  .00000000  00000+0  00000-0 0  9990
2 10041  55.0000 120.0000 0000000   0.0000  84.0000  4.78387620    19
CTC1_L_00614005-03
1 10042U 25711WW  26075.70039352  .00000000  00000+0  00000-0 0  9991
2 10042  55.0000 120.0000 0000000   0.0000 120.0000  4.78387620    11
CTC1_L_00614005-04
1 10043U 23943QU  26075.70039352  .00000000  00000+0  00000-0 0  9997
2 10043  55.0000 120.0000 0000000   0.0000 156.0000  4.78387620    11
CTC1_L_00614005-05
1 10044U 26717HJ  26075.70039352  .00000000  00000+0  00000-0 0  9990
2 10044  55.0000 120.0000 0000000   0.0000 192.0000  4.78387620    12
CTC1_L_00614005-06
1 10045U 22602VT  26075.70039352  .00000000  00000+0  00000-0 0  9990
2 10045  55.0000 120.0000 0000000   0.0000 228.0000  4.78387620    13
CTC1_L_00614005-07
1 10046U 25651CZ  26075.70039352  .00000000  00000+0  00000-0 0  9998
2 10046  55.0000 120.0000 0000000   0.0000 264.0000  4.78387620    14
CTC1_L_00614005-08
1 10047U 22377NP  26075.70039352  .00000000  00000+0  00000-0 0  9991
2 10047  55.0000 120.0000 0000000   0.0000 300.0000  4.78387620    16
CTC1_L_00614005-09
1 10048U 22451JU  26075.70039352  .00000000  00000+0  00000-0 0  9995
2 10048  55.0000 120.0000 0000000   0.0000 336.0000  4.78387620    16
CTC1_L_00614005-10
1 10049U 24070CR  26075.70039352  .00000000  00000+0  00000-0 0  9995
2 10049  55.0000 120.0000 0000000   0.0000  12.0000  4.78387620    18
CTC1_L_00614006-01
1 10050U 22970ND  26075.70039352  .00000000  00000+0  00000-0 0  9994
2 10050  55.0000 150.0000 0000000   0.0000  60.0000  4.78387620    16
CTC1_L_00614006-02
1 10051U 23603OG  26075.70039352  .00000000  00000+0  00000-0 0  9999
2 10051  55.0000 150.0000 0000000   0.0000  96.0000  4.78387620    16
CTC1_L_00614006-03
1 10052U 24807BX  26075.70039352  .00000000  00000+0  00000-0 0  9997
2 10052  55.0000 150.0000 0000000   0.0000 132.0000  4.78387620    18
CTC1_L_00614006-04
1 10053U 24206BT  26075.70039352  .00000000  00000+0  00000-0 0  9991
2 10053  55.0000 150.0000 0000000   0.0000 168.0000  4.78387620    18
CTC1_L_00614006-05
1 10054U 26131EI  26075.70039352  .00000000  00000+0  00000-0 0  9991
2 10054  55.0000 150.0000 0000000   0.0000 204.0000  4.78387620    10
CTC1_L_00614006-06
1 10055U 22580UZ  26075.70039352  .00000000  00000+0  00000-0 0  9996
2 10055  55.0000 150.0000 0000000   0.0000 240.0000  4.78387620    11
CTC1_L_00614006-07
1 10056U 23854ZV  26075.70039352  .00000000  00000+0  00000-0 0  9992
2 10056  55.0000 150.0000 0000000   0.0000 276.0000  4.78387620    11
CTC1_L_00614006-08
1 10057U 25141BB  26075.70039352  .00000000  00000+0  00000-0 0  9994
2 10057  55.0000 150.0000 0000000   0.0000 312.0000  4.78387620    13
CTC1_L_00614006-09
1 10058U 23037JV  26075.70039352  .00000000  00000+0  00000-0 0  9997
2 10058  55.0000 150.0000 0000000   0.0000 348.0000  4.78387620    13
CTC1_L_00614006-10
1 10059U 22404DD  26075.70039352  .00000000  00000+0  00000-0 0  9995
2 10059  55.0000 150.0000 0000000   0.0000  24.0000  4.78387620    15
CTC1_L_00614007-01
1 10060U 22406RJ  26075.70039352  .00000000  00000+0  00000-0 0  9999
2 10060  55.0000 180.0000 0000000   0.0000  72.0000  4.78387620    13
CTC1_L_00614007-02
1 10061U 26751KD  26075.70039352  .00000000  00000+0  00000-0 0  9997
2 10061  55.0000 180.0000 0000000   0.0000 108.0000  4.78387620    14
